{
  "type": "FeatureCollection",
  "features": [
    {
      "type": "Feature",
      "properties": {
        "norad_id": 66998,
        "name": "2025-292F",
        "group": "last-30-days",
        "lat": 20.893236990372493,
        "lon": 66.504350909235,
        "alt_km": 559.8164790531127,
        "timestamp": "2025-12-22T23:36:19.413181+00:00",
        "meta_object_name": "2025-292F",
        "meta_object_id": "2025-292F",
        "meta_epoch": "2025-12-22T13:56:13.805376",
        "meta_mean_motion": 15.04919599,
        "meta_eccentricity": 0.0015003,
        "meta_inclination": 97.6543,
        "meta_ra_of_asc_node": 69.0478,
        "meta_arg_of_pericenter": 241.4762,
        "meta_mean_anomaly": 118.4954,
        "meta_ephemeris_type": 0,
        "meta_classification_type": "U",
        "meta_norad_cat_id": 66998,
        "meta_element_set_no": 999,
        "meta_rev_at_epoch": 187,
        "meta_bstar": 0.00037125812,
        "meta_mean_motion_dot": 5.208e-05,
        "meta_mean_motion_ddot": 0,
        "tle_line1": "1 66998U 25292F   25356.58071534  .00005208  00000+0  37126-3 0  9998",
        "tle_line2": "2 66998  97.6543  69.0478 0015003 241.4762 118.4954 15.04919599  1873"
      },
      "geometry": {
        "type": "Point",
        "coordinates": [
          66.504350909235,
          20.893236990372493
        ]
      }
    },
    {
      "type": "Feature",
      "properties": {
        "norad_id": 66999,
        "name": "2025-292G",
        "group": "last-30-days",
        "lat": 23.783356097581752,
        "lon": 66.05153938665123,
        "alt_km": 558.9973849571825,
        "timestamp": "2025-12-22T23:36:19.413194+00:00",
        "meta_object_name": "2025-292G",
        "meta_object_id": "2025-292G",
        "meta_epoch": "2025-12-22T13:55:28.670880",
        "meta_mean_motion": 15.04983487,
        "meta_eccentricity": 0.00145211,
        "meta_inclination": 97.6551,
        "meta_ra_of_asc_node": 69.0499,
        "meta_arg_of_pericenter": 243.4965,
        "meta_mean_anomaly": 116.4773,
        "meta_ephemeris_type": 0,
        "meta_classification_type": "U",
        "meta_norad_cat_id": 66999,
        "meta_element_set_no": 999,
        "meta_rev_at_epoch": 187,
        "meta_bstar": 0.00037833994,
        "meta_mean_motion_dot": 5.317e-05,
        "meta_mean_motion_ddot": 0,
        "tle_line1": "1 66999U 25292G   25356.58019295  .00005317  00000+0  37834-3 0  9992",
        "tle_line2": "2 66999  97.6551  69.0499 0014521 243.4965 116.4773 15.04983487  1871"
      },
      "geometry": {
        "type": "Point",
        "coordinates": [
          66.05153938665123,
          23.783356097581752
        ]
      }
    },
    {
      "type": "Feature",
      "properties": {
        "norad_id": 67000,
        "name": "2025-292H",
        "group": "last-30-days",
        "lat": 24.19192310885357,
        "lon": 65.98700284662978,
        "alt_km": 558.9241677888203,
        "timestamp": "2025-12-22T23:36:19.413204+00:00",
        "meta_object_name": "2025-292H",
        "meta_object_id": "2025-292H",
        "meta_epoch": "2025-12-22T13:55:22.609920",
        "meta_mean_motion": 15.05006401,
        "meta_eccentricity": 0.00145061,
        "meta_inclination": 97.6565,
        "meta_ra_of_asc_node": 69.0518,
        "meta_arg_of_pericenter": 243.2165,
        "meta_mean_anomaly": 116.7577,
        "meta_ephemeris_type": 0,
        "meta_classification_type": "U",
        "meta_norad_cat_id": 67000,
        "meta_element_set_no": 999,
        "meta_rev_at_epoch": 174,
        "meta_bstar": 0.00047823435,
        "meta_mean_motion_dot": 6.742e-05,
        "meta_mean_motion_ddot": 0,
        "tle_line1": "1 67000U 25292H   25356.58012280  .00006742  00000+0  47823-3 0  9995",
        "tle_line2": "2 67000  97.6565  69.0518 0014506 243.2165 116.7577 15.05006401  1749"
      },
      "geometry": {
        "type": "Point",
        "coordinates": [
          65.98700284662978,
          24.19192310885357
        ]
      }
    },
    {
      "type": "Feature",
      "properties": {
        "norad_id": 67001,
        "name": "2025-292J",
        "group": "last-30-days",
        "lat": -2.861285535869695,
        "lon": 69.82221145767068,
        "alt_km": 562.7702388838507,
        "timestamp": "2025-12-22T23:36:19.413214+00:00",
        "meta_object_name": "2025-292J",
        "meta_object_id": "2025-292J",
        "meta_epoch": "2025-12-22T14:02:25.081728",
        "meta_mean_motion": 15.04400567,
        "meta_eccentricity": 0.00146831,
        "meta_inclination": 97.6546,
        "meta_ra_of_asc_node": 69.0424,
        "meta_arg_of_pericenter": 232.3357,
        "meta_mean_anomaly": 127.6538,
        "meta_ephemeris_type": 0,
        "meta_classification_type": "U",
        "meta_norad_cat_id": 67001,
        "meta_element_set_no": 999,
        "meta_rev_at_epoch": 187,
        "meta_bstar": 0.00038506686,
        "meta_mean_motion_dot": 5.328e-05,
        "meta_mean_motion_ddot": 0,
        "tle_line1": "1 67001U 25292J   25356.58501252  .00005328  00000+0  38507-3 0  9996",
        "tle_line2": "2 67001  97.6546  69.0424 0014683 232.3357 127.6538 15.04400567  1875"
      },
      "geometry": {
        "type": "Point",
        "coordinates": [
          69.82221145767068,
          -2.861285535869695
        ]
      }
    },
    {
      "type": "Feature",
      "properties": {
        "norad_id": 67002,
        "name": "ZK-1A R/B",
        "group": "last-30-days",
        "lat": -20.932571919197937,
        "lon": -112.37117447245714,
        "alt_km": 482.8306264525572,
        "timestamp": "2025-12-22T23:36:19.413226+00:00",
        "meta_object_name": "ZK-1A R/B",
        "meta_object_id": "2025-292K",
        "meta_epoch": "2025-12-22T04:13:50.836512",
        "meta_mean_motion": 15.57537546,
        "meta_eccentricity": 0.02092931,
        "meta_inclination": 97.7207,
        "meta_ra_of_asc_node": 69.7284,
        "meta_arg_of_pericenter": 331.1889,
        "meta_mean_anomaly": 27.7932,
        "meta_ephemeris_type": 0,
        "meta_classification_type": "U",
        "meta_norad_cat_id": 67002,
        "meta_element_set_no": 999,
        "meta_rev_at_epoch": 186,
        "meta_bstar": 0.00083309212,
        "meta_mean_motion_dot": 0.00176431,
        "meta_mean_motion_ddot": 1.0433725e-05,
        "tle_line1": "1 67002U 25292K   25356.17628283  .00176431  10434-4  83309-3 0  9997",
        "tle_line2": "2 67002  97.7207  69.7284 0209293 331.1889  27.7932 15.57537546  1866"
      },
      "geometry": {
        "type": "Point",
        "coordinates": [
          -112.37117447245714,
          -20.932571919197937
        ]
      }
    },
    {
      "type": "Feature",
      "properties": {
        "norad_id": 67003,
        "name": "STARLINK-35660",
        "group": "last-30-days",
        "lat": -0.7062082905384557,
        "lon": -66.17639623486188,
        "alt_km": 316.66762062924954,
        "timestamp": "2025-12-22T23:36:19.413236+00:00",
        "meta_object_name": "STARLINK-35660",
        "meta_object_id": "2025-293A",
        "meta_epoch": "2025-12-22T20:00:01.999008",
        "meta_mean_motion": 15.86355753,
        "meta_eccentricity": 0.0003223,
        "meta_inclination": 69.9942,
        "meta_ra_of_asc_node": 294.5133,
        "meta_arg_of_pericenter": 267.6732,
        "meta_mean_anomaly": 314.2866,
        "meta_ephemeris_type": 0,
        "meta_classification_type": "U",
        "meta_norad_cat_id": 67003,
        "meta_element_set_no": 999,
        "meta_rev_at_epoch": 179,
        "meta_bstar": -0.007416,
        "meta_mean_motion_dot": -0.01629811,
        "meta_mean_motion_ddot": 0,
        "tle_line1": "1 67003U 25293A   25356.83335647 -.01629811  00000+0 -74160-2 0  9996",
        "tle_line2": "2 67003  69.9942 294.5133 0003223 267.6732 314.2866 15.86355753  1792"
      },
      "geometry": {
        "type": "Point",
        "coordinates": [
          -66.17639623486188,
          -0.7062082905384557
        ]
      }
    },
    {
      "type": "Feature",
      "properties": {
        "norad_id": 67004,
        "name": "STARLINK-35913",
        "group": "last-30-days",
        "lat": 1.420207347171611,
        "lon": -65.4043948999858,
        "alt_km": 316.73211698033447,
        "timestamp": "2025-12-22T23:36:19.413246+00:00",
        "meta_object_name": "STARLINK-35913",
        "meta_object_id": "2025-293B",
        "meta_epoch": "2025-12-22T20:00:01.999008",
        "meta_mean_motion": 15.86343801,
        "meta_eccentricity": 0.0003368,
        "meta_inclination": 69.9942,
        "meta_ra_of_asc_node": 294.5104,
        "meta_arg_of_pericenter": 262.0892,
        "meta_mean_anomaly": 322.1384,
        "meta_ephemeris_type": 0,
        "meta_classification_type": "U",
        "meta_norad_cat_id": 67004,
        "meta_element_set_no": 999,
        "meta_rev_at_epoch": 179,
        "meta_bstar": -0.0074104,
        "meta_mean_motion_dot": -0.01628046,
        "meta_mean_motion_ddot": 0,
        "tle_line1": "1 67004U 25293B   25356.83335647 -.01628046  00000+0 -74104-2 0  9994",
        "tle_line2": "2 67004  69.9942 294.5104 0003368 262.0892 322.1384 15.86343801  1791"
      },
      "geometry": {
        "type": "Point",
        "coordinates": [
          -65.4043948999858,
          1.420207347171611
        ]
      }
    }
  ]
}